{"type":"Feature","properties":{"MUN":"BRIGANTINE CITY","COUNTY":"ATLANTIC","MUN_LABEL":"Brigantine City","MUN_TYPE":"City","NAME":"Brigantine","GNIS_NAME":"City of Brigantine"},"geometry":{"type":"Polygon","coordinates":[[[-74.3244469,39.4489186],[-74.3280691,39.4410355],[-74.3282542,39.4405473],[-74.3284855,39.4399808],[-74.3288186,39.4391435],[-74.3291515,39.4382173],[-74.3293463,39.4376754],[-74.3294202,39.4375294],[-74.3294316,39.4375113],[-74.3297618,39.4370294],[-74.3297823,39.4370006],[-74.3300518,39.4366443],[-74.3302269,39.4364389],[-74.330513,39.4361425],[-74.3305669,39.4361009],[-74.3306206,39.4360906],[-74.3307012,39.4360907],[-74.3307818,39.4360908],[-74.3308423,39.4360649],[-74.3310104,39.435961],[-74.3311651,39.4358675],[-74.3314611,39.435644],[-74.331663,39.435436],[-74.3318245,39.4353008],[-74.3318924,39.4352472],[-74.33196,39.4352123],[-74.3320135,39.4351993],[-74.3320867,39.4351951],[-74.3321402,39.4351864],[-74.332205,39.4351625],[-74.332284,39.4351102],[-74.3326139,39.4348662],[-74.3326787,39.4348336],[-74.3327266,39.4348206],[-74.3327801,39.4348076],[-74.3328195,39.4347858],[-74.3328957,39.434703],[-74.332924,39.4346681],[-74.3329606,39.4346397],[-74.3330057,39.434618],[-74.3330592,39.4346072],[-74.3331838,39.4345813],[-74.3332887,39.4345453],[-74.3333936,39.4345003],[-74.3338895,39.4342818],[-74.334043,39.4341456],[-74.3341204,39.4340804],[-74.3342076,39.4340428],[-74.3342477,39.4340148],[-74.3343845,39.4339076],[-74.3345229,39.4338091],[-74.334646,39.4337173],[-74.3354747,39.4331034],[-74.3363172,39.4324012],[-74.3366918,39.432089],[-74.337093,39.4317297],[-74.3377772,39.4309756],[-74.3379523,39.4306939],[-74.3379559,39.4306915],[-74.338089,39.4305715],[-74.3382663,39.4304516],[-74.3383402,39.4303716],[-74.3383846,39.4302974],[-74.3385176,39.4301717],[-74.3387321,39.4299718],[-74.3389436,39.4297801],[-74.3389769,39.4297878],[-74.3389899,39.4297554],[-74.3389888,39.4297391],[-74.3389876,39.4297217],[-74.3389708,39.4296936],[-74.3389657,39.4296684],[-74.3389636,39.429658],[-74.3389637,39.4296243],[-74.3389782,39.4295981],[-74.3390024,39.4295775],[-74.3390411,39.4295588],[-74.3390967,39.4295476],[-74.339174,39.4295421],[-74.3392199,39.4295291],[-74.3392366,39.4295241],[-74.3392635,39.429516],[-74.3393094,39.4294899],[-74.3393409,39.4294506],[-74.3393455,39.4294349],[-74.3393531,39.4294094],[-74.3393532,39.4293513],[-74.3393654,39.4293082],[-74.3393872,39.4292745],[-74.3394138,39.4292465],[-74.339584,39.4290564],[-74.3395972,39.4290235],[-74.3396407,39.4289297],[-74.3396564,39.4289184],[-74.3397123,39.4288916],[-74.3397763,39.428867],[-74.3398402,39.4288402],[-74.3398748,39.4288196],[-74.3399068,39.4287846],[-74.3399549,39.4287104],[-74.3400292,39.4285406],[-74.340144,39.4284333],[-74.3402839,39.4283861],[-74.3403348,39.4283549],[-74.3403858,39.4283155],[-74.3404284,39.4282531],[-74.3404923,39.4281413],[-74.3405539,39.4280789],[-74.34059,39.428051],[-74.3406155,39.4280395],[-74.3406431,39.4280395],[-74.3407152,39.4280462],[-74.3407555,39.4280414],[-74.3408086,39.4280052],[-74.340813,39.4279493],[-74.3407962,39.4278523],[-74.3408005,39.4278161],[-74.3408112,39.4278013],[-74.3408451,39.4277799],[-74.3408897,39.4277718],[-74.340947,39.4277702],[-74.3410042,39.427767],[-74.3410573,39.4277523],[-74.3411083,39.4277227],[-74.3411487,39.4276669],[-74.3411636,39.4276192],[-74.3411764,39.427583],[-74.3411873,39.4274843],[-74.3412064,39.427463],[-74.3412404,39.4274334],[-74.3414124,39.4273449],[-74.3414931,39.4272907],[-74.3415208,39.4272611],[-74.3415463,39.4272118],[-74.3415784,39.4271049],[-74.3416018,39.4270721],[-74.3416315,39.4270458],[-74.3416867,39.4270261],[-74.3417567,39.4270197],[-74.3418161,39.427],[-74.3418459,39.4269787],[-74.3418686,39.4269548],[-74.3418821,39.426931],[-74.3418863,39.4269047],[-74.3418843,39.4268866],[-74.3418673,39.4268734],[-74.3418567,39.4268668],[-74.3418475,39.4268541],[-74.341842,39.4268372],[-74.3418421,39.4267836],[-74.341951,39.4266813],[-74.3420513,39.4266833],[-74.3421132,39.4266741],[-74.3421537,39.4266483],[-74.3422182,39.4266004],[-74.3422612,39.426534],[-74.3423258,39.4264029],[-74.342364,39.4263568],[-74.3423902,39.4263421],[-74.342426,39.4263107],[-74.3424332,39.4262756],[-74.3424309,39.426235],[-74.3424119,39.4262017],[-74.3424025,39.4261814],[-74.3424025,39.4261592],[-74.3424145,39.4261463],[-74.3424335,39.4261334],[-74.3424669,39.4261316],[-74.342474,39.4261316],[-74.3425414,39.4261661],[-74.3425501,39.4261705],[-74.3425858,39.4261853],[-74.3426168,39.4261872],[-74.3426525,39.4261836],[-74.3426835,39.4261726],[-74.3427241,39.4261338],[-74.3427766,39.4260656],[-74.3427815,39.426036],[-74.3427767,39.4260157],[-74.342763,39.4259782],[-74.3427625,39.4259769],[-74.3427554,39.425951],[-74.3427579,39.4259178],[-74.3427866,39.4258716],[-74.342894,39.4257388],[-74.3429537,39.4256853],[-74.3429609,39.4256724],[-74.342967,39.4256397],[-74.3430334,39.4255646],[-74.3430604,39.4255582],[-74.3430895,39.4255566],[-74.343131,39.4255648],[-74.3431767,39.425585],[-74.3432058,39.4255939],[-74.3432265,39.4255963],[-74.3432525,39.4255931],[-74.3432754,39.4255819],[-74.3432921,39.4255682],[-74.3432973,39.4255537],[-74.3432974,39.4255319],[-74.3433036,39.4255102],[-74.3433099,39.4255013],[-74.3433265,39.425482],[-74.3433328,39.4254683],[-74.3433349,39.425445],[-74.3433267,39.4254055],[-74.3433197,39.4252991],[-74.3433343,39.4252701],[-74.3434843,39.4250786],[-74.3435114,39.4250512],[-74.3435405,39.4250303],[-74.3435655,39.4250207],[-74.34358,39.4250191],[-74.3436154,39.4250191],[-74.3436548,39.4250224],[-74.3436901,39.4250353],[-74.3437254,39.4250515],[-74.3437483,39.4250531],[-74.3437836,39.4250354],[-74.3438045,39.4250032],[-74.3438045,39.4249968],[-74.3437942,39.4249581],[-74.3437714,39.4249065],[-74.3437694,39.4248759],[-74.3437841,39.4248453],[-74.3438111,39.4248212],[-74.3439026,39.4248019],[-74.3439442,39.4247859],[-74.3439754,39.4247666],[-74.3440025,39.4247392],[-74.3440067,39.4247135],[-74.3440005,39.4246796],[-74.3439882,39.4246296],[-74.3439882,39.4245974],[-74.3439945,39.4245716],[-74.3440195,39.4245362],[-74.3440404,39.4245153],[-74.3440986,39.4244864],[-74.3441547,39.4244751],[-74.3442254,39.4244527],[-74.3442857,39.424427],[-74.3443398,39.424398],[-74.3443752,39.4243626],[-74.3443878,39.4243256],[-74.3444108,39.4242724],[-74.3444399,39.4242451],[-74.3444795,39.4242129],[-74.3444962,39.4241759],[-74.3444962,39.4241469],[-74.3445062,39.4240799],[-74.3445089,39.4240615],[-74.3445214,39.4240276],[-74.3445465,39.4239842],[-74.3446006,39.4239375],[-74.344663,39.4239086],[-74.3447066,39.4239054],[-74.3447083,39.4239054],[-74.3447544,39.4239055],[-74.3448043,39.4239007],[-74.3448521,39.4238798],[-74.3448896,39.4238525],[-74.3449458,39.4237881],[-74.344973,39.4237382],[-74.3450147,39.4236351],[-74.345023,39.4236104],[-74.3451549,39.4234817],[-74.3452474,39.4233818],[-74.3453767,39.4232318],[-74.3455061,39.4230461],[-74.3457371,39.422839],[-74.3458664,39.4226962],[-74.345996,39.422539],[-74.3461252,39.4224177],[-74.3462638,39.4222677],[-74.3464024,39.4221249],[-74.346578,39.4219678],[-74.3467255,39.4218822],[-74.3468551,39.4217322],[-74.3469936,39.4216109],[-74.3471046,39.421468],[-74.3472521,39.4213895],[-74.3473031,39.4213531],[-74.347626,39.4208997],[-74.3479419,39.4205516],[-74.3481302,39.4203334],[-74.3482176,39.4202191],[-74.3482513,39.4201359],[-74.3482649,39.4200683],[-74.348265,39.4200273],[-74.3483147,39.4199726],[-74.348942,39.4191516],[-74.3491048,39.4189931],[-74.349158,39.4188495],[-74.3492156,39.4187976],[-74.3492827,39.4187555],[-74.3493435,39.4186962],[-74.3494587,39.4185454],[-74.3495651,39.418368],[-74.3496924,39.4181941],[-74.3496957,39.4181595],[-74.3496742,39.4181049],[-74.3497282,39.4180598],[-74.3499388,39.4178598],[-74.3501053,39.4177308],[-74.3507821,39.4168608],[-74.3508142,39.4167374],[-74.3508527,39.416614],[-74.3509165,39.4165499],[-74.3510121,39.4165056],[-74.3511587,39.4164366],[-74.351299,39.4163133],[-74.3527669,39.4146854],[-74.3536917,39.4139013],[-74.3549737,39.4127967],[-74.3557582,39.4121556],[-74.3567978,39.4112679],[-74.3570043,39.4111155],[-74.3588768,39.4093349],[-74.3592812,39.4089032],[-74.3616964,39.406569],[-74.3624599,39.4057837],[-74.3642404,39.4039664],[-74.364723,39.4034588],[-74.3655382,39.4027462],[-74.3657118,39.4026082],[-74.3658371,39.4025336],[-74.3659624,39.4024814],[-74.3660491,39.4024703],[-74.3661455,39.4024368],[-74.3662178,39.4023921],[-74.3662709,39.4023361],[-74.3663192,39.4022652],[-74.3663724,39.4021606],[-74.3664303,39.4020748],[-74.366575,39.4019442],[-74.3682679,39.4005451],[-74.3686007,39.4002429],[-74.3690975,39.3998325],[-74.3693001,39.3996683],[-74.3718271,39.3976089],[-74.3719669,39.3975193],[-74.372097,39.3974522],[-74.3722512,39.3973926],[-74.3723187,39.3973516],[-74.3723573,39.3973106],[-74.3723959,39.3972471],[-74.3724683,39.3971575],[-74.3725696,39.397053],[-74.3727336,39.3969262],[-74.3729168,39.3967993],[-74.3750014,39.3954792],[-74.3757381,39.395079],[-74.3758062,39.395058],[-74.3765711,39.3945473],[-74.3773784,39.393988],[-74.3781628,39.3934288],[-74.3791316,39.3927028],[-74.3798698,39.3920839],[-74.3808465,39.3912627],[-74.3815231,39.3906794],[-74.3823228,39.3901321],[-74.3832298,39.389561],[-74.3839062,39.3891088],[-74.3850364,39.3882042],[-74.3858669,39.3875139],[-74.3865898,39.3868591],[-74.3874356,39.386145],[-74.3882813,39.3854904],[-74.3891655,39.3847285],[-74.3899343,39.3841096],[-74.3907185,39.3834429],[-74.3914871,39.3829789],[-74.3921787,39.3825863],[-74.3927782,39.3822174],[-74.3935085,39.3815865],[-74.3938621,39.3812889],[-74.394185,39.3810509],[-74.3946922,39.3807296],[-74.3952762,39.3804083],[-74.3958911,39.3799799],[-74.3966289,39.3794085],[-74.3971824,39.3789681],[-74.3976667,39.3785157],[-74.3980203,39.3782538],[-74.3985428,39.3779563],[-74.3989732,39.3776588],[-74.3994037,39.377254],[-74.3999264,39.3768612],[-74.4005564,39.3764446],[-74.4009867,39.3762066],[-74.4013096,39.3759567],[-74.4016939,39.3756114],[-74.4019552,39.3753971],[-74.4025392,39.3750282],[-74.4025712,39.3750121],[-74.4025722,39.3750116],[-74.4028409,39.3748768],[-74.4031909,39.3747017],[-74.4035265,39.3745039],[-74.4039133,39.3742101],[-74.404249,39.3738822],[-74.4045482,39.3736053],[-74.4047891,39.3733679],[-74.4049058,39.3732266],[-74.4052196,39.3730571],[-74.4061376,39.3685056],[-74.4067842,39.3691302],[-74.407969,39.3702747],[-74.409178,39.3713376],[-74.409223,39.3714611],[-74.4092738,39.3715946],[-74.4092741,39.3715953],[-74.409338,39.3717544],[-74.4093371,39.3717547],[-74.4093895,39.3718796],[-74.4094439,39.3720039],[-74.4095001,39.3721277],[-74.4095583,39.372251],[-74.4096184,39.3723737],[-74.4096803,39.3724959],[-74.4097442,39.3726175],[-74.4098099,39.3727385],[-74.4098774,39.3728589],[-74.4099469,39.3729787],[-74.4100366,39.3731281],[-74.4100877,39.3732107],[-74.4101397,39.3732928],[-74.4101925,39.3733747],[-74.4102653,39.3734846],[-74.4102979,39.3735333],[-74.4103061,39.3735455],[-74.4103633,39.3736307],[-74.4104084,39.373698],[-74.4104983,39.373832],[-74.4105133,39.3738543],[-74.4105623,39.3739273],[-74.4106439,39.3740491],[-74.4107256,39.3741709],[-74.4108044,39.3742883],[-74.4108842,39.3744073],[-74.4109024,39.3744344],[-74.4110401,39.3746396],[-74.4116784,39.3755912],[-74.4117765,39.3757373],[-74.4121032,39.3762244],[-74.4122666,39.3764679],[-74.41243,39.3767114],[-74.4124308,39.3767111],[-74.4125534,39.3768937],[-74.4126514,39.3770398],[-74.4127369,39.3771673],[-74.4127377,39.3771685],[-74.4127964,39.3772529],[-74.4128569,39.3773365],[-74.4129193,39.3774192],[-74.4129836,39.3775011],[-74.4130497,39.3775821],[-74.4131176,39.3776622],[-74.4131874,39.3777414],[-74.4132589,39.3778197],[-74.4133322,39.3778969],[-74.4134072,39.3779731],[-74.4134839,39.3780484],[-74.4135624,39.3781225],[-74.4136425,39.3781956],[-74.4137242,39.3782676],[-74.4138075,39.3783385],[-74.4138925,39.3784083],[-74.413979,39.3784768],[-74.414067,39.3785442],[-74.4141566,39.3786105],[-74.4142476,39.3786754],[-74.4143401,39.3787392],[-74.4144341,39.3788017],[-74.4145294,39.3788629],[-74.4146261,39.3789228],[-74.4147241,39.3789814],[-74.4148235,39.3790386],[-74.4149241,39.3790945],[-74.415026,39.3791491],[-74.4151291,39.3792022],[-74.4152334,39.3792539],[-74.4153388,39.3793043],[-74.4154454,39.3793532],[-74.4155531,39.3794006],[-74.4156618,39.3794466],[-74.4157715,39.3794911],[-74.4158822,39.3795341],[-74.4159939,39.3795756],[-74.4161065,39.3796156],[-74.41622,39.3796541],[-74.4163344,39.379691],[-74.4164495,39.3797264],[-74.4165655,39.3797602],[-74.4166803,39.3797919],[-74.4167959,39.379822],[-74.4169121,39.3798506],[-74.417029,39.3798777],[-74.4171464,39.3799032],[-74.4172644,39.3799271],[-74.4173829,39.3799494],[-74.4175018,39.3799701],[-74.4176213,39.3799893],[-74.4177411,39.3800068],[-74.4178613,39.3800227],[-74.4179002,39.3800724],[-74.4180032,39.3801952],[-74.4180993,39.3803023],[-74.4181888,39.380396],[-74.4182723,39.3804789],[-74.41835,39.3805535],[-74.4184226,39.3806221],[-74.4184904,39.380687],[-74.4185543,39.3807488],[-74.4186149,39.3808081],[-74.418673,39.3808652],[-74.4187294,39.3809206],[-74.4187848,39.3809747],[-74.41884,39.381028],[-74.4188958,39.3810807],[-74.4189527,39.3811335],[-74.419011,39.3811865],[-74.4190707,39.3812402],[-74.4191318,39.3812947],[-74.4191943,39.3813504],[-74.4192583,39.3814076],[-74.4193239,39.3814667],[-74.419391,39.3815278],[-74.4194597,39.3815912],[-74.4195298,39.3816569],[-74.4196009,39.3817245],[-74.4196728,39.3817939],[-74.4197453,39.3818649],[-74.4198181,39.3819372],[-74.4198909,39.3820106],[-74.4199635,39.382085],[-74.4200355,39.3821601],[-74.4201064,39.382236],[-74.4201758,39.3823126],[-74.4202429,39.3823901],[-74.4203074,39.3824684],[-74.4203322,39.3825005],[-74.4203685,39.3825476],[-74.4204259,39.3826277],[-74.4204788,39.3827087],[-74.4205271,39.3827907],[-74.420571,39.3828737],[-74.4206114,39.382958],[-74.4206489,39.3830435],[-74.4206841,39.3831304],[-74.4207178,39.3832188],[-74.4207505,39.3833087],[-74.4207831,39.3834004],[-74.4208159,39.3834936],[-74.4208487,39.3835874],[-74.4208812,39.3836808],[-74.4209129,39.3837725],[-74.4209433,39.3838613],[-74.4209721,39.3839462],[-74.4209988,39.384026],[-74.421023,39.3840995],[-74.4210445,39.384166],[-74.4210635,39.3842265],[-74.4210804,39.3842823],[-74.4210956,39.3843348],[-74.4211096,39.3843855],[-74.4211229,39.3844357],[-74.4211357,39.3844867],[-74.4211486,39.38454],[-74.4211619,39.3845965],[-74.4211754,39.3846558],[-74.4211892,39.3847169],[-74.4212029,39.384779],[-74.4212165,39.3848411],[-74.4212299,39.3849024],[-74.4212428,39.3849619],[-74.4212552,39.3850188],[-74.4212669,39.3850726],[-74.4212786,39.3851242],[-74.421291,39.3851749],[-74.4213048,39.3852263],[-74.4213205,39.3852795],[-74.421339,39.3853361],[-74.4213608,39.3853973],[-74.4213868,39.3854645],[-74.4214173,39.3855385],[-74.421452,39.3856181],[-74.4214904,39.3857013],[-74.4215319,39.3857863],[-74.4215759,39.3858712],[-74.4216219,39.3859542],[-74.4216694,39.3860334],[-74.4217177,39.3861069],[-74.4137275,39.389645],[-74.4138095,39.3897565],[-74.4141102,39.3901654],[-74.4154811,39.3920297],[-74.4155041,39.3952413],[-74.4138642,39.3970801],[-74.4107787,39.4004988],[-74.4102835,39.4010727],[-74.4102699,39.4010929],[-74.4095649,39.4018037],[-74.4090269,39.4024747],[-74.4088178,39.4028967],[-74.4087193,39.4031204],[-74.4085511,39.4035019],[-74.4084808,39.4036395],[-74.4081382,39.4043109],[-74.4077529,39.4051297],[-74.4074308,39.4057574],[-74.4073337,39.4059362],[-74.4071821,39.4061011],[-74.4067111,39.4064764],[-74.4062349,39.406822],[-74.4056808,39.4072242],[-74.4051119,39.4076313],[-74.4044413,39.4083947],[-74.4042612,39.4086023],[-74.4040481,39.4089827],[-74.4039413,39.4093315],[-74.4039133,39.4095497],[-74.4039893,39.4101624],[-74.4040733,39.4104877],[-74.4041961,39.4110281],[-74.4042219,39.4114588],[-74.4041968,39.4119075],[-74.4041928,39.411946],[-74.404056,39.4125367],[-74.4040109,39.4126413],[-74.4038822,39.4129399],[-74.4037559,39.4132327],[-74.4032671,39.4141418],[-74.4031832,39.4142978],[-74.4028593,39.4151007],[-74.4028556,39.4151099],[-74.4024106,39.4164652],[-74.4023707,39.4165865],[-74.401959,39.4178133],[-74.4018596,39.4179863],[-74.4015815,39.4182015],[-74.4011298,39.4184704],[-74.4005392,39.4187123],[-74.4004064,39.4187522],[-74.3992443,39.4192851],[-74.3987662,39.41957],[-74.3982551,39.4199392],[-74.3977513,39.4203919],[-74.3975427,39.4206572],[-74.3974272,39.4208408],[-74.3972332,39.4211933],[-74.3970107,39.4217867],[-74.3968211,39.4223494],[-74.3968014,39.4223984],[-74.3966621,39.4230688],[-74.3965216,39.4237447],[-74.3964939,39.424462],[-74.3964917,39.4245179],[-74.3964718,39.4250333],[-74.3964638,39.4252398],[-74.3964166,39.4264588],[-74.3964165,39.4264628],[-74.3964822,39.4271814],[-74.3965742,39.4281229],[-74.3965748,39.4281298],[-74.3966605,39.4291535],[-74.3966693,39.4292581],[-74.3967651,39.4297319],[-74.397015,39.4309662],[-74.396999,39.431106],[-74.3969808,39.4312457],[-74.3969606,39.4313851],[-74.3969381,39.4315244],[-74.3969136,39.4316635],[-74.3968869,39.4318023],[-74.396858,39.4319409],[-74.396827,39.4320792],[-74.396794,39.4322172],[-74.3967587,39.4323549],[-74.3967214,39.4324923],[-74.396682,39.4326293],[-74.3966404,39.432766],[-74.3965968,39.4329022],[-74.3965511,39.4330381],[-74.3965033,39.4331735],[-74.3964534,39.4333084],[-74.3964014,39.4334429],[-74.3963474,39.4335769],[-74.3962913,39.4337105],[-74.3962331,39.4338434],[-74.3961729,39.4339759],[-74.3961107,39.4341077],[-74.3960465,39.434239],[-74.3959803,39.4343697],[-74.395912,39.4344998],[-74.3958417,39.4346293],[-74.3957695,39.4347581],[-74.3956953,39.4348862],[-74.3956191,39.4350136],[-74.395541,39.4351403],[-74.3954609,39.4352663],[-74.3953789,39.4353916],[-74.395295,39.4355161],[-74.3952091,39.4356398],[-74.3951214,39.4357627],[-74.3950318,39.4358848],[-74.3949403,39.436006],[-74.394847,39.4361265],[-74.3947518,39.436246],[-74.3946548,39.4363647],[-74.3945559,39.4364825],[-74.3944553,39.4365993],[-74.3943528,39.4367153],[-74.3942486,39.4368303],[-74.3941427,39.4369443],[-74.3940349,39.4370573],[-74.3939255,39.4371693],[-74.3938143,39.4372804],[-74.3937015,39.4373904],[-74.393612,39.4374619],[-74.3935211,39.4375322],[-74.3934286,39.4376014],[-74.3933346,39.4376693],[-74.3932391,39.437736],[-74.3931422,39.4378014],[-74.3930438,39.4378656],[-74.3929441,39.4379284],[-74.392843,39.43799],[-74.3927406,39.4380502],[-74.3926369,39.4381091],[-74.3925319,39.4381666],[-74.3924257,39.4382228],[-74.3923183,39.4382776],[-74.3922097,39.4383309],[-74.3920999,39.4383829],[-74.391989,39.4384333],[-74.391877,39.4384824],[-74.391764,39.43853],[-74.3916499,39.4385761],[-74.3915349,39.4386207],[-74.3914189,39.4386637],[-74.391302,39.4387053],[-74.3911841,39.4387454],[-74.3910655,39.4387839],[-74.390946,39.4388208],[-74.3908257,39.4388562],[-74.3907046,39.43889],[-74.3905828,39.4389223],[-74.3904604,39.4389529],[-74.3903373,39.438982],[-74.3902136,39.4390094],[-74.3900892,39.4390352],[-74.3899644,39.4390594],[-74.389839,39.439082],[-74.3897132,39.4391029],[-74.3895869,39.4391222],[-74.3894602,39.4391398],[-74.3893332,39.4391558],[-74.3892058,39.4391701],[-74.3890781,39.4391828],[-74.3889502,39.4391938],[-74.388822,39.4392031],[-74.3886937,39.4392108],[-74.3885652,39.4392167],[-74.3884366,39.439221],[-74.3883079,39.4392237],[-74.3881792,39.4392246],[-74.3880504,39.4392239],[-74.3879217,39.4392215],[-74.3877931,39.4392174],[-74.3876646,39.4392117],[-74.3875362,39.4392042],[-74.3874081,39.4391951],[-74.3872801,39.4391843],[-74.3871524,39.4391719],[-74.3870249,39.4391578],[-74.3868979,39.439142],[-74.3867711,39.4391246],[-74.3866448,39.4391056],[-74.3865189,39.4390849],[-74.3863934,39.4390625],[-74.3862685,39.4390385],[-74.3861441,39.4390129],[-74.3860203,39.4389857],[-74.3858971,39.4389569],[-74.3857746,39.4389265],[-74.3856527,39.4388944],[-74.3855316,39.4388608],[-74.3854112,39.4388256],[-74.3852916,39.4387889],[-74.3851728,39.4387506],[-74.3850548,39.4387107],[-74.3849378,39.4386694],[-74.3848217,39.4386265],[-74.3847065,39.4385821],[-74.3845923,39.4385362],[-74.3844791,39.4384888],[-74.384367,39.43844],[-74.3841335,39.4383412],[-74.383899,39.4382439],[-74.3836635,39.438148],[-74.383427,39.4380536],[-74.3831895,39.4379607],[-74.3829511,39.4378692],[-74.3827117,39.4377793],[-74.3824714,39.4376908],[-74.3822302,39.4376038],[-74.3819881,39.4375183],[-74.3817451,39.4374344],[-74.3815012,39.4373519],[-74.3812565,39.4372709],[-74.381011,39.4371915],[-74.3807646,39.4371136],[-74.3805174,39.4370372],[-74.3802695,39.4369624],[-74.3800207,39.4368891],[-74.3797713,39.4368174],[-74.379521,39.4367472],[-74.3792701,39.4366785],[-74.3790185,39.4366114],[-74.3787661,39.4365459],[-74.3785131,39.4364819],[-74.3782594,39.4364196],[-74.3780051,39.4363588],[-74.3777502,39.4362995],[-74.3774947,39.4362419],[-74.3772385,39.4361858],[-74.3769818,39.4361314],[-74.3767246,39.4360785],[-74.3764667,39.4360272],[-74.3762084,39.4359776],[-74.3759496,39.4359295],[-74.3756902,39.4358831],[-74.3754304,39.4358382],[-74.3751702,39.435795],[-74.3749095,39.4357534],[-74.3746483,39.4357134],[-74.3743868,39.435675],[-74.3741249,39.4356383],[-74.3738626,39.4356031],[-74.3735999,39.4355697],[-74.3733369,39.4355378],[-74.3730736,39.4355076],[-74.3728099,39.435479],[-74.3684588,39.4349552],[-74.3664864,39.4346873],[-74.3658686,39.4346891],[-74.365086,39.4347365],[-74.3650647,39.4347386],[-74.3642524,39.4348184],[-74.3635575,39.4349431],[-74.3630846,39.4350616],[-74.362783,39.4351484],[-74.3624129,39.4352832],[-74.3616861,39.4356232],[-74.3606871,39.4363297],[-74.3592514,39.4375111],[-74.3577751,39.4384036],[-74.3571772,39.4387649],[-74.3562304,39.4393137],[-74.3561005,39.439389],[-74.3557661,39.4395337],[-74.3549793,39.439874],[-74.3549442,39.4398858],[-74.352842,39.4405894],[-74.3476269,39.4417176],[-74.3475989,39.4417224],[-74.3462559,39.4419519],[-74.3449373,39.4421773],[-74.3430096,39.4426148],[-74.3415529,39.4430287],[-74.3413057,39.4430989],[-74.3412433,39.4431219],[-74.3407114,39.4433181],[-74.3400162,39.4436241],[-74.3395451,39.4438782],[-74.3392833,39.4440574],[-74.3382725,39.4448731],[-74.3376858,39.4453464],[-74.3369827,39.4459597],[-74.3354519,39.4472947],[-74.3343667,39.4482371],[-74.3331426,39.4494629],[-74.3323718,39.4500872],[-74.3318631,39.450405],[-74.3312447,39.4507328],[-74.3305249,39.4509531],[-74.3295983,39.4511255],[-74.3291202,39.4511248],[-74.3284333,39.4510195],[-74.3278661,39.4508566],[-74.3266501,39.4502641],[-74.3252182,39.4493818],[-74.3249696,39.4492325],[-74.3244469,39.4489186]]]}}
